KUIPER-00074            
1 64821U 25151F   25274.33336806 -.01328622  00000+0 -85949-1 0  9998
2 64821  51.8875 277.8645 0013559  90.9302  83.3849 15.10570824  4756
KUIPER-00075            
1 64822U 25151G   25274.26522510  .00074136  00000+0  19208-2 0  9991
2 64822  51.8779 275.7078 0007169  54.2077 305.9576 15.38343556 11836
KUIPER-00076            
1 64823U 25151H   25274.33336806 -.00914416  00000+0 -70894-1 0  9994
2 64823  51.8876 279.2465 0006321  79.8414 224.2304 15.03900569  5572
KUIPER-00077            
1 64824U 25151J   25274.33336806 -.00014311  00000+0 -15599-2 0  9992
2 64824  51.8969 282.8995 0006767  43.0700 275.8381 14.86969908  5893
KUIPER-00078            
1 64825U 25151K   25274.33336806  .00012912  00000+0  11629-2 0  9996
2 64825  51.8915 280.9163 0008964 106.0022 102.6914 14.95859745  5750
KUIPER-00079            
1 64826U 25151L   25274.33336806 -.00011911  00000+0 -15327-2 0  9996
2 64826  51.8998 284.9480 0013103  69.0156 147.4657 14.79948866  5863
KUIPER-00080            
1 64827U 25151M   25274.33336806  .00016197  00000+0  21448-2 0  9997
2 64827  51.8985 285.2507 0006069  90.0424 149.4816 14.79998296  1305
KUIPER-00082            
1 64828U 25151N   25274.33336806 -.00820050  00000+0 -42211-1 0  9991
2 64828  51.8864 276.9675 0006820  59.3151 273.0292 15.18708791  5517
KUIPER-00083            
1 64829U 25151P   25274.33336806 -.00884104  00000+0 -87015-1 0  9993
2 64829  51.8924 280.9004 0011196  74.9313  11.1167 14.94650845  5242
KUIPER-00084            
1 64830U 25151Q   25274.24374057 -.00004532  00000+0 -57437-3 0  9991
2 64830  51.8988 290.5827 0011625  51.5887 308.6117 14.79234727 11626
KUIPER-00085            
1 64831U 25151R   25274.33336806 -.00359425  00000+0 -18845-1 0  9994
2 64831  51.8979 277.0722 0010040  67.5083 151.6132 15.16934299  5759
KUIPER-00086            
1 64832U 25151S   25274.33336806 -.00882173  00000+0 -10338+0 0  9993
2 64832  51.8973 282.9249 0011699  73.4788  76.5775 14.87247717  3117
KUIPER-00087            
1 64833U 25151T   25274.28799143 -.00005639  00000+0 -14704-3 0  9994
2 64833  51.8771 275.8524 0007904  69.2628 290.9205 15.36081548 11821
KUIPER-00089            
1 64834U 25151U   25274.33336806 -.00759215  00000+0 -32549-1 0  9995
2 64834  51.8856 276.3687 0006736  60.0294 202.7220 15.24685052  5606
KUIPER-00090            
1 64835U 25151V   25274.24643146  .00032629  00000+0  88787-3 0  9992
2 64835  51.8779 276.3160 0008513  75.2136 284.9793 15.37196273 11829
KUIPER-00091            
1 64836U 25151W   25274.33336806 -.00796293  00000+0 -30783-1 0  9992
2 64836  51.8810 275.8961 0009446  71.6519  26.4601 15.28167948  5388
KUIPER-00092            
1 64837U 25151X   25274.33336806 -.01083192  00000+0 -66082-1 0  9992
2 64837  51.8847 277.9530 0010347  61.2276 150.5015 15.12595428  5582
KUIPER-00093            
1 64838U 25151Y   25274.33336806 -.01213453  00000+0 -95112-1 0  9994
2 64838  51.8918 279.3708 0014323  77.3759  64.0019 15.03763918  5367
KUIPER-00094            
1 64839U 25151Z   25274.33336806 -.00377872  00000+0 -16812-1 0  9990
2 64839  51.8849 276.4138 0009611  74.6219 116.2514 15.22644438  5660
KUIPER-00081            
1 65132U 25171A   25273.93693422  .00036297  00000+0  98838-3 0  9995
2 65132  51.8757 161.3387 0004158 305.2559  54.8038 15.37146966  9003
KUIPER-00088            
1 65133U 25171B   25270.16527031  .00069481  00000+0  18784-2 0  9992
2 65133  51.8754 179.5657 0004999 287.4481  72.5959 15.37073507  8424
KUIPER-00095            
1 65134U 25171C   25273.95769777  .00041000  00000+0  11360-2 0  9998
2 65134  51.8755 161.4704 0004003 338.0868  21.9947 15.36550581  9008
KUIPER-00096            
1 65135U 25171D   25274.07839267  .00058520  00000+0  15903-2 0  9997
2 65135  51.8758 160.7812 0004026 317.1336  42.9337 15.36993651  9024
KUIPER-00097            
1 65136U 25171E   25273.95885883  .00061780  00000+0  16949-2 0  9992
2 65136  51.8758 161.4784 0003583 332.8651  27.2148 15.36675196  8994
KUIPER-00098            
1 65137U 25171F   25274.06845540  .00059954  00000+0  16207-2 0  9999
2 65137  51.8749 160.7243 0005823 306.5757  53.4694 15.37139376  8365
KUIPER-00099            
1 65138U 25171G   25274.13603838  .00062431  00000+0  16845-2 0  9992
2 65138  51.8756 160.4286 0004248 295.7669  64.2879 15.37185393  9028
KUIPER-00100            
1 65139U 25171H   25274.07802845  .00057974  00000+0  15776-2 0  9993
2 65139  51.8754 160.7766 0004425 316.6362  43.4276 15.36953069  9014
KUIPER-00102            
1 65140U 25171J   25273.95869548  .00058421  00000+0  16090-2 0  9992
2 65140  51.8751 161.4755 0003716 333.8730  26.2068 15.36579095  8998
KUIPER-00103            
1 65141U 25171K   25274.33336806 -.00587615  00000+0 -27565-1 0  9994
2 65141  51.8837 160.3660 0004951 309.3167 349.3265 15.21461541  4287
KUIPER-00104            
1 65142U 25171L   25273.95027872  .00032749  00000+0  90484-3 0  9995
2 65142  51.8762 161.4315 0003220 316.0307  44.0423 15.36747880  8999
KUIPER-00105            
1 65143U 25171M   25274.33336806 -.00358730  00000+0 -12328-1 0  9991
2 65143  51.8785 159.5083 0006788 305.5982  34.2282 15.31065605  5432
KUIPER-00106            
1 65144U 25171N   25274.33336806 -.00512586  00000+0 -25236-1 0  9995
2 65144  51.8865 160.5173 0005753 293.3194 243.0689 15.19870804  5436
KUIPER-00107            
1 65145U 25171P   25273.94637998  .00089394  00000+0  24216-2 0  9990
2 65145  51.8764 161.4057 0004529 321.6130  38.4533 15.36892536  9007
KUIPER-00108            
1 65146U 25171Q   25273.96001482  .00066965  00000+0  18410-2 0  9994
2 65146  51.8764 161.4953 0004332 328.3709  31.7017 15.36572184  9008
KUIPER-00109            
1 65147U 25171R   25273.93993981  .00057417  00000+0  15498-2 0  9991
2 65147  51.8759 161.3577 0004630 300.6716  59.3814 15.37210278  8998
KUIPER-00110            
1 65148U 25171S   25274.33336806 -.00805785  00000+0 -32997-1 0  9997
2 65148  51.8783 159.9514 0006828 315.9505 157.8386 15.26348132  5888
KUIPER-00111            
1 65149U 25171T   25274.33336806 -.00785309  00000+0 -43586-1 0  9993
2 65149  51.8829 161.2251 0005341 318.9232 285.1207 15.15994579  5778
KUIPER-00112            
1 65150U 25171U   25273.96051699  .00064718  00000+0  17811-2 0  9992
2 65150  51.8753 161.4945 0004519 339.1310  20.9491 15.36553557  8993
KUIPER-00114            
1 65151U 25171V   25274.33336806 -.01650550  00000+0 -11503+0 0  9998
2 65151  51.8872 162.4467 0004900 300.8746 338.4730 15.08154068  2527
KUIPER-00115            
1 65152U 25171W   25274.33336806  .00016664  00000+0  62742-3 0  9993
2 65152  51.8785 159.8428 0007173 319.3530 233.2755 15.27202665  5226
KUIPER-00116            
1 65153U 25171X   25274.33336806 -.01632569  00000+0 -94867-1 0  9996
2 65153  51.8901 161.3792 0005702 289.2006 178.1138 15.15149858  5793
KUIPER-00118            
1 65154U 25171Y   25274.33336806 -.01721744  00000+0 -11698+0 0  9990
2 65154  51.8847 162.2941 0004228 295.9857 145.7156 15.09220565  5405
KUIPER-00119            
1 65155U 25171Z   25274.33336806 -.00486172  00000+0 -14363-1 0  9997
2 65155  51.8753 159.4139 0005244 302.4703  94.3541 15.36363859  4929
